STARLINK-2022           
1 47643U 21012Z   24066.42001168 -.00024670  00000+0 -16433-2 0  9999
2 47643  53.0526 103.3938 0001371  79.6266 280.4878 15.06394387169225
